#dP2022  5 24  0  0  0.00000000      96 __u+U ITR14 FIT  IAC
## 2211 172800.00000000   900.00000000 59723 0.0000000000000
+  127   C01C02C03C04C05C06C07C08C09C10C11C12C13C14C16C19C20
+        C21C22C23C24C25C26C27C28C29C30C32C33C34C35C36C37C38
+        C39C40C41C42C43C44C45C46C60E01E02E03E04E05E07E08E09
+        E10E11E12E13E14E15E18E19E21E24E25E26E27E30E31E33E34
+        E36G01G02G03G04G05G06G07G08G09G10G11G12G13G14G15G16
+        G17G18G19G20G21G22G23G24G25G26G27G28G29G30G31G32J02
+        J03J07R01R02R03R04R05R06R07R08R09R10R11R12R13R14R15
+        R17R18R19R20R21R22R23R24  0  0  0  0  0  0  0  0  0
++        15 15 15 15 15  9  9  9  9  8  9  9  9  9  9  7  7
++         7  7  7  7  7  7  7  7  7  7  7  7  7  7  7  7  8
++         8  8  7  7  7  7  7  7 15  4  4  4  4  4  4  4  5
++         5  4  4  4  5  4  4  4  4  4  4  4  4  4  5  4  4
++         5  4  4  4  4  3  4  3  4  3  3  4  4  3  3  4  4
++         4  3  4  4  4  4  3  4  4  4  3  4  3  3  4  4  8
++         8 15  7  6  6  6  6 13  6  6  6 13  6  6  7  5  5
++         6  6  7  7  6  7 13  6  0  0  0  0  0  0  0  0  0
%c M  cc GPS ccc cccc cccc cccc cccc ccccc ccccc ccccc ccccc
%c cc cc ccc ccc cccc cccc cccc cccc ccccc ccccc ccccc ccccc
%f  0.0000000  0.000000000  0.00000000000  0.000000000000000
%f  0.0000000  0.000000000  0.00000000000  0.000000000000000
%i    0    0    0    0      0      0      0      0         0
%i    0    0    0    0      0      0      0      0         0
/* INFORMATION & ANALYSIS CENTER (IAC)            RAPID DATA
/* S/V CLOCKS ARE ALIGNED TO GNSS TIME                      
/* G:C1WC2W R:C1PC2P E:C1XC5X C:C2IC6I J:C1CC2S             
/* PCV:IGS14_2196 OL/AL:FES2004  NONE     YN ORB:CoN CLK:CoN
*  2022 05 24 22 15  0.00000000
PC01 -34364.686255  24457.584660   -561.823375    230.316297
PC02   4482.495530  41915.251494   -829.436785     -8.139629
PC03 -14720.280919  39501.352126  -1377.863807   -545.858345
PC04 -39631.771992  14419.589456   -284.266079     43.215496
PC05  22006.323691  36006.800702   -521.853556    244.056410
PC06 -17713.291705  32896.838172  19370.961916     50.673578
PC07  -4227.243991  38110.047871  17727.523314   -209.565352
PC08  -6131.253817  19977.758659 -36623.240686    329.548840
PC09 -10715.273412  31472.195271  25999.092897   -818.622800
PC10   2247.021855  40835.341544  11522.191926    130.487486
PC11   7533.082109  13630.193829 -23101.390663    372.530746
PC12  -9603.727601  21789.818596 -14532.071313   -610.872491
PC13   1726.332759  23264.594694 -34957.150149    -23.378378
PC14  11979.429806  23692.432059   8724.044215    482.860047
PC16 -20485.500803  32732.536559  16808.930629    134.364955
PC19 -15616.783943 -16126.666293 -16530.553215    866.560428
PC20  -7359.674989 -26872.406281  -1163.078032   -928.788192
PC21  -5885.681383  22167.926114 -15894.078484   -353.347277
PC22 -15186.305972   4436.478458 -22982.111122   -968.048951
PC23  25638.145853   -551.094186 -11001.353774   -930.669224
PC24   8086.231620  17531.559212  20135.540418   -968.867143
PC25  24973.695203  11050.800319   5687.094703   -731.857117
PC26 -10777.703357  13377.124486  21987.515307    733.159819
PC27  16515.968978 -21492.390321   6648.329212    728.340882
PC28  23165.513873 -11525.850693 -10453.264654     70.597449
PC29 -16390.286948  -5198.351882  21966.857780    559.129578
PC30    177.392733 -19622.304201  19839.018115    498.957356
PC32   5800.462193 -22140.775472  15974.251917   -964.360067
PC33  15736.856723  16123.537268  16490.383305   -966.410460
PC34    853.295650  19108.924400 -20326.562775   -396.154676
PC35 -22762.955693  11463.935972  11311.756224    289.226631
PC36 -24476.801870 -11896.105766  -6151.295815   -965.050382
PC37  12244.193137 -12558.252292 -21684.894384   -909.218068
PC38 -14921.678533  19208.871360 -34438.495506    234.477298
PC39 -23542.078426  33237.867631  10597.026890     34.973089
PC40  -8371.227708  35096.721285  21944.087657    271.785812
PC41  15386.414526  -3918.173568  23004.129331   -966.678955
PC42   6808.960224  27076.030032    226.468399   -968.575608
PC43  15994.182900   5974.435677 -22090.891036   -922.183935
PC44 -15797.107141  22052.525631  -6489.737218    670.295493
PC45 -25516.169746    722.101203  11301.611214    765.644826
PC46  -9832.940627 -17406.578363 -19479.342752   -342.330171
PC60   7303.635450  41527.369191  -1251.630801     -0.971646
PE01  20063.212673   -387.092693 -21758.618203   -482.940137
PE02 -19985.602308    537.907221  21829.093474    301.287650
PE03 -18140.867865  12406.316114 -19830.083519   -561.699420
PE04  11135.104641 -27045.759253   4556.511278  -1035.136732
PE05 -14622.520851  -9857.358094 -23764.149094   -178.540184
PE07   2667.106552  26043.886294  13835.727160   -671.787377
PE08 -10852.922712  27207.776332  -4300.339215   -534.788605
PE09  -2735.266056 -25948.115366 -13953.905987   -529.733257
PE10   5680.619096 -17099.481525  23471.450588   -515.175375
PE11  -6334.201558 -14964.038648  24725.064536   3569.032955
PE12  16204.272695 -16483.154234  18495.672648   4597.264273
PE13   5584.935853  15109.149631 -24836.477061    428.883151
PE14  -2256.082049 -19553.185932  12809.369068  -1827.913124
PE15 -16290.874085  16442.953335 -18445.481685    743.632224
PE18   6543.504557  24473.703168 -20414.064798  -1410.026244
PE19  18224.508221  -9787.790687  21184.349750  -5222.595383
PE21  23405.842335  15953.526571  -8593.672655   -736.133770
PE24 -12477.534473 -24349.835962 -11334.208669   -633.116248
PE25 -23362.210000 -16151.896265   8345.417268   -575.129188
PE26  24624.061609   4471.101867 -15811.355514  -1183.095363
PE27  13517.115765  24225.185036  10317.333235   -306.376286
PE30  -5238.366130  17538.963021  23249.636621   -537.193081
PE31   4224.499754 -18169.648377 -22976.481028   -497.162857
PE33  28460.265624  -8070.997776   1203.972680   -456.313355
PE34 -28393.753320   8250.834191  -1419.896213   -518.721605
PE36 -24001.275418  -4920.775065  16597.991844   -378.365076
PG01   7720.738907  13597.000044 -21824.270966    355.804493
PG02  15304.348696 -14875.681422  16556.186001   -653.149771
PG03  11952.049393  22923.506452  -6461.562540   -255.945053
PG04   1865.222445  21585.773508  15313.658399   -164.063299
PG05    224.621565 -19360.116440  17949.813058    -83.046768
PG06  25620.249082  -5900.395119   4135.431345    316.252012
PG07  22343.665020   6918.761411  13443.845508    322.201777
PG08  -4082.989758  24925.104353  -7650.263711    -69.345631
PG09  10469.626326  13099.738185  20523.774536   -334.141719
PG10 -19198.086615  -5467.589923 -17519.086962   -427.403208
PG11  16806.487151 -12564.157816  16266.523221    -21.137486
PG12  -7115.446512 -23637.815188 -10218.282392   -220.568462
PG13  13038.492805 -23025.785630   -606.218415    317.534733
PG14  19431.323573   6841.393351 -16817.182526   -109.630528
PG15    303.991686 -25125.422657  -8521.297396    -58.647038
PG16  -6455.065005  15625.506777  20088.680817   -503.651027
PG17  16935.587265  -4683.051673 -19501.344189    616.709905
PG18 -21725.596481  -7026.135506  13652.599751    161.197751
PG19  18296.658197 -11537.185029 -15528.187722    161.671240
PG20   9424.292563 -12517.595194  21458.276613    514.159723
PG21  -3172.442036  15424.301102 -20638.890079    161.198992
PG22 -17656.622722  14721.288095 -12729.418777    264.526895
PG23 -20134.526633 -14649.452413  -9401.985854    -23.984844
PG24  -3800.703475 -15475.994696 -21552.785926    234.915856
PG25 -17596.235099 -19901.399462   2475.932606    328.880601
PG26 -14581.223316   6758.650115  21093.345948    207.864818
PG27 -12535.997874  22763.100514   4129.725806    207.760974
PG28  15717.627940  -1809.923515 -20783.570909    351.810356
PG29  -8751.832528 -13706.665662  20932.247968   -517.089707
PG30  26322.437251    428.323735   4527.784775   -529.109711
PG31 -25058.212039   7061.096415   6255.101603   -178.993719
PG32 -17185.696593   7446.114762 -18609.777028   -134.784428
PJ02 -25366.310110  22326.499948  30257.632257     -0.259939
PJ03 -34737.111216  23382.451585   -135.300371     -2.377787
PJ07 -25396.241630  33658.320412     31.690156     -0.032761
PR01 -10915.001778   2011.150084 -22960.583281      9.066699
PR02  -5620.648276  20597.041578 -13863.971225    519.347535
PR03   2736.441764  25159.217769   3015.411842     57.222226
PR04   9147.718630  15670.233466  17958.359286    143.107347
PR05  10679.793048  -2428.312091  23054.252490     93.434868
PR06   4608.295035 -21462.185004  13004.831055    -50.190678
PR07  -2984.317513 -25092.951821  -3605.488056     35.520889
PR08  -9279.476924 -15580.958316 -17887.708931    -65.314042
PR09   8196.545382  -8444.415334 -22620.097080     56.824516
PR10  -8335.359246 -14408.263144 -19362.216557    -82.695753
PR11 -21533.490504 -12900.865673  -4477.189777     38.142996
PR12 -21286.868741  -3377.410069  13681.014221     18.599877
PR13  -9287.978726   7472.861605  22536.345891    -22.756209
PR14   9602.705234  14768.002468  18469.253610     25.548736
PR15  21701.144113  12912.481226   3644.342664     95.902942
PR17  -3581.064740  13734.008288 -21202.509966    528.939870
PR18  12163.503176   4031.636570 -22058.615697    117.975667
PR19  21406.050131  -6342.861812 -12344.245514   -190.209417
PR20  18927.232717 -15234.264789   7842.810417    -71.228809
PR21   2187.682254 -13009.385874  21819.925061   -303.924417
PR22 -12677.624177  -3569.627373  21802.250758   -185.240350
PR23 -22296.554171  10196.146606   7015.413466    -41.849914
PR24 -18048.369098  15943.362117  -8417.224734     95.358176
EOF
